1 53896U 22119L   22282.58334491  .00016803  00000-0  12385-3 0  9999
2 53896  53.2185 180.6537 0005721 272.8828 316.4730 15.73197932  1304